STARLINK-1068           
1 44772U 19074BM  22081.51598177 -.00001758  00000+0 -99181-4 0  9995
2 44772  53.0545 227.7289 0001426  67.5986 292.5154 15.06395412130197
JILIN-01 GAOFEN 2A      
1 44777U 19075A   22081.61848435  .00001471  00000+0  95543-4 0  9995
2 44777  97.4247 141.7767 0008241 173.7654 341.5773 15.09505095129804
NINGXIA-1 1             
1 44779U 19076A   22081.47147850 -.00000024  00000+0  69081-4 0  9997
2 44779  45.0068 254.1596 0010454  33.5176 326.6324 14.01713549120685
NINGXIA-1 2             
1 44780U 19076B   22081.45878237 -.00000016  00000+0  74365-4 0  9999
2 44780  45.0093 254.2678 0007973  27.7606 332.3660 14.01688742120685
NINGXIA-1 3             
1 44781U 19076C   22081.44589720 -.00000024  00000+0  69533-4 0  9995
2 44781  45.0011 253.6018 0009677  15.4591 344.6527 14.01703238120683
NINGXIA-1 4             
1 44782U 19076D   22081.50189242 -.00000008  00000+0  79914-4 0  9994
2 44782  45.0091 253.7586 0013112   4.0350 356.0587 14.01726981120693
NINGXIA-1 5             
1 44783U 19076E   22081.48669553 -.00000004  00000+0  82066-4 0  9998
2 44783  45.0065 253.4872 0011590  20.5298 339.6008 14.01719319120694
KL-ALPHA A              
1 44785U 19077A   22081.49705823  .00000033  00000+0  29730-4 0  9993
2 44785  88.9244  33.3665 0009860 310.2532  49.7757 13.55801928116009
KL-ALPHA B              
1 44786U 19077B   22081.54180790  .00000034  00000+0  30888-4 0  9997
2 44786  88.9095  33.2401 0026697 344.4314  15.6000 13.55778277115467
RWASAT-1                
1 44790U 98067QV  22079.86460617  .00027062  00000+0  11951-3 0  9998
2 44790  51.6285 354.4753 0004986 199.1368 286.8460 15.84259250132795
AQT-D                   
1 44791U 98067QW  22081.02080801  .00181066  00000+0  65957-3 0  9993
2 44791  51.6282 347.5817 0006415 196.2990 163.7809 15.87383374132995
BEIDOU-3 M21            
1 44793U 19078A   22081.31237654 -.00000083  00000+0  10000-3 0  9991
2 44793  54.9996 353.6174 0007547   5.4436 167.6344  1.86232167 15828
BEIDOU-3 M22            
1 44794U 19078B   22080.51513559 -.00000080  00000+0  00000+0 0  9996
2 44794  54.9746 353.6372 0005424   0.2319 269.8339  1.86232698 15803
COSMOS 2542             
1 44797U 19079A   22081.68957016  .00036339  22686-5  47044-3 0  9997
2 44797  97.6988 148.1895 0332959   8.9933 351.7063 15.14215173126564
TIBA-1                  
1 44800U 19080A   22081.25444818  .00000154  00000+0  00000+0 0  9991
2 44800   0.0557 352.0471 0001838  20.5893 294.2020  1.00274165  8535
INMARSAT GX5            
1 44801U 19080B   22081.29216076  .00000073  00000+0  00000+0 0  9999
2 44801   0.0183 340.7052 0002234  36.0997 279.1272  1.00270532  8588
CARTOSAT-3              
1 44804U 19081A   22081.50532080  .00002037  00000+0  99646-4 0  9994
2 44804  97.4083 144.8147 0013350 156.4324 314.3390 15.19268121128436
MESHBED                 
1 44806U 19081C   22081.43128098  .00011084  00000+0  43921-3 0  9994
2 44806  97.4114 147.2482 0013289 161.0372 199.1363 15.25493251128629
FLOCK 4P-10             
1 44808U 19081E   22081.46542284  .00005086  00000+0  20943-3 0  9990
2 44808  97.4109 147.2146 0013027 162.7576 197.4107 15.24490132128638
FLOCK 4P-11             
1 44809U 19081F   22081.17935633  .00013088  00000+0  53485-3 0  9991
2 44809  97.4106 146.9628 0012840 162.4325 197.7359 15.24422863128591
FLOCK 4P-4              
1 44811U 19081H   22081.13088570  .00012839  00000+0  51145-3 0  9993
2 44811  97.4158 147.3537 0012138 154.0163 206.1687 15.25292378128598
FLOCK 4P-3              
1 44812U 19081J   22081.12634215  .00013499  00000+0  53761-3 0  9995
2 44812  97.4152 147.3535 0011917 155.3449 204.8360 15.25292479128591
FLOCK 4P-1              
1 44814U 19081L   22081.44995797  .00008292  00000+0  34439-3 0  9993
2 44814  97.4122 147.3378 0011743 156.2151 203.9631 15.24016655128637
FLOCK 4P-7              
1 44816U 19081N   22081.15177788  .00004598  00000+0  18991-3 0  9995
2 44816  97.4118 147.1003 0011280 156.0307 204.1457 15.24458891128590
FLOCK 4P-5              
1 44818U 19081Q   22081.52069563  .00007593  00000+0  31203-3 0  9998
2 44818  97.4115 147.5377 0010587 154.0810 206.0959 15.24416835128650
GAOFEN 12-1             
1 44819U 19082A   22081.47122780  .00000199  00000+0  32919-4 0  9996
2 44819  97.8691 103.6043 0002079  86.8147 273.3303 14.80211235125070
ALE-2                   
1 44824U 19084A   22081.53891160  .00015030  00000+0  20526-3 0  9996
2 44824  96.8976 298.9528 0010287  56.1535 304.0700 15.57490969130154
COSMOS 2543             
1 44835U 19079D   22081.58792654  .00005179  00000+0  18290-3 0  9993
2 44835  97.7743 148.6672 0092375  24.4347 336.1227 15.25672988124506
JILIN-01 GAOFEN 2B      
1 44836U 19086A   22081.51219852  .00002344  00000+0  14993-3 0  9996
2 44836  97.4269 142.2811 0005625 296.6459 174.6782 15.09540442126189
2019-087A               
1 44838U 19087A   22081.49882911  .00009682  00000+0  38219-3 0  9997
2 44838  97.4687 241.6977 0011536 206.0200 239.6661 15.25683228127209
2019-087B               
1 44839U 19087B   22081.46827603  .00006206  00000+0  25778-3 0  9997
2 44839  97.4657 240.9092 0011676 208.3949 227.0529 15.24126885127177
2019-087C               
1 44840U 19087C   22081.45285839  .00006342  00000+0  25946-3 0  9995
2 44840  97.4736 242.0192 0011072 209.2218 227.0129 15.24637079127190
2019-087D               
1 44841U 19087D   22081.45049336  .00024942  00000+0  81589-3 0  9997
2 44841  97.4496 243.0002 0008547 196.6300 249.0426 15.31656459127363
2019-087E               
1 44842U 19087E   22081.45783155  .00006758  00000+0  27395-3 0  9992
2 44842  97.4630 241.1122 0010330 209.5489 225.1671 15.24925487127214
2019-087F               
1 44843U 19087F   22081.49185883  .00005371  00000+0  22272-3 0  9990
2 44843  97.4700 241.5587 0011945 221.1949 211.7268 15.24247149127198
COSMOS 2544 [GLONASS-M] 
1 44850U 19088A   22081.39098159  .00000046  00000+0  00000+0 0  9992
2 44850  64.9332 125.6112 0013767 261.0134  85.5044  2.13102402 17716
TYVAK-0092              
1 44852U 19089A   22081.53512013  .00004360  00000+0  33505-3 0  9994
2 44852  36.9639 249.6891 0007189 274.8708  85.1214 15.01661290124886
TYVAK-0129              
1 44853U 19089B   22081.58690475  .00004358  00000+0  33654-3 0  9991
2 44853  36.9643 251.0202 0007024 265.6176  94.3764 15.01473759124984
DUCHIFAT-3              
1 44854U 19089C   22081.48000078  .00002598  00000+0  20921-3 0  9992
2 44854  36.9653 255.6797 0008160 245.3658 114.6227 15.00339688124865
LEMUR-2-JPGSQUARED      
1 44855U 19089D   22081.55790100  .00003937  00000+0  30714-3 0  9992
2 44855  36.9650 254.5078 0006130 243.0944 116.9172 15.01163143124946
QPS-SAR-1 IZANAGI       
1 44856U 19089E   22081.48464958  .00004393  00000+0  34920-3 0  9994
2 44856  36.9670 259.4597 0004472 225.4479 134.5901 15.00376618124884
RISAT-2BR1              
1 44857U 19089F   22081.48993490  .00001634  00000+0  14030-3 0  9998
2 44857  36.9641 265.6813 0005955 195.4486 164.6077 14.98545660124816
2019-089G               
1 44858U 19089G   22081.52001760  .00006286  00000+0  49281-3 0  9998
2 44858  36.9671 259.8783 0004288 208.6169 151.4338 15.00688631124885
IHOPSAT-TD              
1 44859U 19089H   22081.56863520  .00000990  00000+0  86806-4 0  9994
2 44859  36.9697 262.2497 0006193 212.6776 147.3583 14.98888732124796
LEMUR-2-HIMOMANDDAD     
1 44860U 19089J   22081.58534518  .00005104  00000+0  39763-3 0  9991
2 44860  36.9651 255.6310 0006241 236.7951 123.2193 15.01038874124816
LEMUR-2-PAPPY           
1 44861U 19089K   22081.56542188  .00005035  00000+0  39238-3 0  9992
2 44861  36.9650 255.4634 0006394 238.3096 121.7023 15.01029972124870
LEMUR-2-THEODOSIA       
1 44863U 19089M   22081.53271820  .00003989  00000+0  31168-3 0  9993
2 44863  36.9643 255.1887 0006418 240.7974 119.2126 15.01098825124789
BEIDOU-3 M19            
1 44864U 19090A   22081.38926747  .00000032  00000+0  00000+0 0  9997
2 44864  55.3621 114.4946 0018380 269.0581  61.5829  1.86231875 15402
BEIDOU-3 M20            
1 44865U 19090B   22081.31090471  .00000033  00000+0  00000+0 0  9998
2 44865  55.3645 114.5285 0016581 281.8253  86.1599  1.86231824 15383
JCSAT-18 (KACIFIC 1)    
1 44868U 19091A   22081.53952851 -.00000203  00000+0  00000+0 0  9995
2 44868   0.0035  67.6919 0000455 330.8294 125.6951  1.00271329  8575
CSG-1                   
1 44873U 19092A   22081.50731347 -.00000098  00000+0 -57688-5 0  9997
2 44873  97.8855 266.4224 0001451  89.7581 270.3810 14.82149378122222
CHEOPS                  
1 44874U 19092B   22081.45328697  .00000131  00000+0  39440-4 0  9993
2 44874  98.2385 269.4745 0009810 241.3352 118.6860 14.56928554120124
ANGELS                  
1 44876U 19092D   22081.56578665  .00001859  00000+0  96387-4 0  9990
2 44876  97.4730 266.0809 0010962 304.0636  55.9556 15.17374147125061
EYESAT-NANO             
1 44877U 19092E   22081.50261016  .00006806  00000+0  31542-3 0  9992
2 44877  97.4639 266.6099 0011325 302.8835  57.1310 15.20349982125142
OPS-SAT                 
1 44878U 19092F   22081.45198052  .00005560  00000+0  27348-3 0  9991
2 44878  97.4793 266.2518 0011925 284.5531  75.4380 15.18364495124985
2019-093A               
1 44879U 19093A   22081.47241436  .00001036  00000+0  13717-3 0  9999
2 44879  97.9000 162.1426 0016633 106.5567 253.7470 14.81933015121917
2019-093B               
1 44880U 19093B   22081.47116284  .00001087  00000+0  14363-3 0  9997
2 44880  97.9005 162.1725 0016619 107.6740 252.6285 14.81945367121909
CAS-6 (TIANQIN 1)       
1 44881U 19093C   22081.46143398  .00000421  00000+0  60184-4 0  9997
2 44881  97.8973 161.9113 0016457 107.6721 252.6302 14.81601932121895
2019-093D               
1 44882U 19093D   22081.46652110  .00001448  00000+0  18777-3 0  9995
2 44882  97.9051 162.7312 0017566 108.4283 251.8847 14.82214300121916
